NORAD_CAT_ID,OBJECT_NAME,OBJECT_TYPE,EPOCH,MEAN_MOTION,ECCENTRICITY,INCLINATION,RA_OF_ASC_NODE,ARG_OF_PERICENTER,MEAN_ANOMALY,BSTAR,MEAN_MOTION_DOT,MEAN_MOTION_DDOT,TLE_LINE0,TLE_LINE1,TLE_LINE2,SEMIMAJOR_AXIS,PERIOD,APOGEE,PERIGEE,DECAYED
52455.0,STARLINK-3890,PAYLOAD,2022-07-20 22:00:01,15.08852943,0.0001517,53.2148,269.709,65.6184,278.7425,-0.004776,-0.00075528,0.0,0 STARLINK-3890,1 52455U 22049E   22201.91668981 -.00075528  00000-0 -47760-2 0  9998,2 52455  53.2148 269.7090 0001517  65.6184 278.7425 15.08852943  1307,6917.840999999999,95.437,540.755,538.656,0.0
52455.0,STARLINK-3890,PAYLOAD,2022-07-21 06:00:00,15.0881291,0.0001606,53.215,268.2124,70.4871,285.3802,-0.00010227,-1.914e-05,0.0,0 STARLINK-3890,1 52455U 22049E   22202.25001157 -.00001914  00000-0 -10227-3 0  9999,2 52455  53.2150 268.2124 0001606  70.4871 285.3802 15.08812910 11874,6917.9630000000025,95.439,540.939,538.717,0.0
52455.0,STARLINK-3890,PAYLOAD,2022-07-21 14:00:01,15.08789922,0.000172,53.2151,266.7176,62.38399999999999,305.1121,0.0027087,0.00043025,0.0,0 STARLINK-3890,1 52455U 22049E   22202.58335648  .00043025  00000-0  27087-2 0  9998,2 52455  53.2151 266.7176 0001720  62.3840 305.1121 15.08789922  1306,6918.033,95.441,541.0880000000002,538.7090000000002,0.0
52455.0,STARLINK-3890,PAYLOAD,2022-07-21 22:00:00,15.088170800000002,0.0001613,53.2153,265.2197,66.2182,312.7686,-0.00026995,-4.579e-05,0.0,0 STARLINK-3890,1 52455U 22049E   22202.91667824 -.00004579  00000-0 -26995-3 0  9990,2 52455  53.2153 265.2197 0001613  66.2182 312.7686 15.08817080  1305,6917.95,95.439,540.931,538.7,0.0
52455.0,STARLINK-3890,PAYLOAD,2022-07-22 06:00:00,15.08835325,0.0001648,53.2155,263.7234,68.7635,321.7837,-0.00058972,-9.66e-05,0.0,0 STARLINK-3890,1 52455U 22049E   22203.25001157 -.00009660  00000-0 -58972-3 0  9995,2 52455  53.2155 263.7234 0001648  68.7635 321.7837 15.08835325  1300,6917.895,95.438,540.9,538.62,0.0
52455.0,STARLINK-3890,PAYLOAD,2022-07-22 12:00:00,15.08822091,0.0001769,53.2155,262.6023,62.1037,247.1396,0.00096654,0.0001512,0.0,0 STARLINK-3890,1 52455U 22049E   22203.50001157  .00015120  00000-0  96654-3 0  9998,2 52455  53.2155 262.6023 0001769  62.1037 247.1396 15.08822091 12064,6917.935,95.439,541.024,538.576,0.0
52455.0,STARLINK-3890,PAYLOAD,2022-07-22 22:00:00,15.08836375,0.0001628,53.2157,260.7305,66.1617,347.5646,0.00038242,5.803e-05,0.0,0 STARLINK-3890,1 52455U 22049E   22203.91667824  .00005803  00000-0  38242-3 0  9998,2 52455  53.2157 260.7305 0001628  66.1617 347.5646 15.08836375  1308,6917.891,95.438,540.883,538.63,0.0
52455.0,STARLINK-3890,PAYLOAD,2022-07-23 14:00:01,15.08825816,0.0001715,53.2157,257.7393,60.1413,16.8446,0.0027008,0.00042941,0.0,0 STARLINK-3890,1 52455U 22049E   22204.58335648  .00042941  00000-0  27008-2 0  9999,2 52455  53.2157 257.7393 0001715  60.1413  16.8446 15.08825816  1308,6917.924,95.438,540.975,538.602,0.0
52455.0,STARLINK-3890,PAYLOAD,2022-07-23 16:00:00,15.08846746,0.0001706,53.2155,257.3649,59.3729,110.4434,0.00028353,4.228e-05,0.0,0 STARLINK-3890,1 52455U 22049E   22204.66667824  .00004228  00000-0  28353-3 0  9993,2 52455  53.2155 257.3649 0001706  59.3729 110.4434 15.08846746 12244,6917.86,95.437,540.905,538.545,0.0
52455.0,STARLINK-3890,PAYLOAD,2022-07-23 22:00:00,15.0884245,0.0001525,53.2158,256.2413,65.6594,22.8667,-0.0016243,-0.00026047,0.0,0 STARLINK-3890,1 52455U 22049E   22204.91667824 -.00026047  00000-0 -16243-2 0  9990,2 52455  53.2158 256.2413 0001525  65.6594  22.8667 15.08842450  1300,6917.873000000001,95.437,540.793,538.683,0.0
52455.0,STARLINK-3890,PAYLOAD,2022-07-24 14:00:01,15.08810772,0.0001595999999999,53.2154,253.2502,58.2635,53.4888,0.0029362,0.00046714,0.0,0 STARLINK-3890,1 52455U 22049E   22205.58334491  .00046714  00000-0  29362-2 0  9992,2 52455  53.2154 253.2502 0001596  58.2635  53.4888 15.08810772  1301,6917.97,95.439,540.939,538.731,0.0
52455.0,STARLINK-3890,PAYLOAD,2022-07-24 22:00:00,15.08825343,0.0001446,53.2154,251.7522,65.67699999999999,57.6619,0.0011239,0.00017637,0.0,0 STARLINK-3890,1 52455U 22049E   22205.91667824  .00017637  00000-0  11239-2 0  9994,2 52455  53.2154 251.7522 0001446  65.6770  57.6619 15.08825343  1300,6917.925,95.438,540.7909999999998,538.79,0.0
52455.0,STARLINK-3890,PAYLOAD,2022-07-25 14:00:01,15.0881884,0.000158,53.2147,248.7612,58.5909,87.9333,0.0026933,0.00042812,0.0,0 STARLINK-3890,1 52455U 22049E   22206.58334491  .00042812  00000-0  26933-2 0  9999,2 52455  53.2147 248.7612 0001580  58.5909  87.9333 15.08818840  1305,6917.945,95.439,540.903,538.717,0.0
52455.0,STARLINK-3890,PAYLOAD,2022-07-25 22:00:00,15.08827492,0.0001437,53.2156,247.2631,66.3555,91.7641,0.001443,0.00022744,0.0,0 STARLINK-3890,1 52455U 22049E   22206.91667824  .00022744  00000-0  14430-2 0  9996,2 52455  53.2156 247.2631 0001437  66.3555  91.7641 15.08827492  1303,6917.919,95.438,540.778,538.79,0.0
52455.0,STARLINK-3890,PAYLOAD,2022-07-26 14:00:01,15.08825519,0.0001588999999999,53.2159,244.2722,58.8702,122.4433,0.0023386999999999,0.00037114,0.0,0 STARLINK-3890,1 52455U 22049E   22207.58334491  .00037114  00000-0  23387-2 0  9999,2 52455  53.2159 244.2722 0001589  58.8702 122.4433 15.08825519  1301,6917.925,95.438,540.889,538.69,0.0
52455.0,STARLINK-3890,PAYLOAD,2022-07-26 22:00:00,15.08825341,0.000146,53.2157,242.7741,66.4881,126.4222,0.0017333,0.00027394,0.0,0 STARLINK-3890,1 52455U 22049E   22207.91667824  .00027394  00000-0  17333-2 0  9998,2 52455  53.2157 242.7741 0001460  66.4881 126.4222 15.08825341 12736,6917.925,95.438,540.8,538.78,0.0
52455.0,STARLINK-3890,PAYLOAD,2022-07-27 14:00:01,15.08832129,0.0001625,53.2153,239.7831,58.61600000000001,157.4919,0.0018748,0.00029669,0.0,0 STARLINK-3890,1 52455U 22049E   22208.58334491  .00029669  00000-0  18748-2 0  9991,2 52455  53.2153 239.7831 0001625  58.6160 157.4919 15.08832129  1304,6917.904,95.438,540.894,538.645,0.0
52455.0,STARLINK-3890,PAYLOAD,2022-07-27 22:00:00,15.08838447,0.000155,53.2153,238.2848,66.0905,161.6239,0.00024432,3.602e-05,0.0,0 STARLINK-3890,1 52455U 22049E   22208.91667824  .00003602  00000-0  24432-3 0  9994,2 52455  53.2153 238.2848 0001550  66.0905 161.6239 15.08838447  1304,6917.885,95.438,540.822,538.678,0.0
52455.0,STARLINK-3890,PAYLOAD,2022-07-28 00:00:00,15.08839685,0.0001585,53.2152,237.9105,68.0148,252.5994,-0.00026056,-4.432e-05,0.0,0 STARLINK-3890,1 52455U 22049E   22209.00001157 -.00004432  00000-0 -26056-3 0  9994,2 52455  53.2152 237.9105 0001585  68.0148 252.5994 15.08839685 12893,6917.880999999999,95.438,540.8430000000002,538.65,0.0
52455.0,STARLINK-3890,PAYLOAD,2022-07-28 14:00:01,15.08814202,0.0001786999999999,53.2151,235.2938,59.8627,191.0291,0.0013161,0.00020705,0.0,0 STARLINK-3890,1 52455U 22049E   22209.58334491  .00020705  00000-0  13161-2 0  9998,2 52455  53.2151 235.2938 0001787  59.8627 191.0291 15.08814202  1300,6917.959,95.439,541.06,538.5880000000002,0.0
52455.0,STARLINK-3890,PAYLOAD,2022-07-28 22:00:00,15.08802728,0.0001694,53.2153,233.7955,66.3306,196.1431,0.0025116999999999,0.00039871,0.0,0 STARLINK-3890,1 52455U 22049E   22209.91667824  .00039871  00000-0  25117-2 0  9992,2 52455  53.2153 233.7955 0001694  66.3306 196.1431 15.08802728  1300,6917.994000000002,95.44,541.031,538.687,0.0
52455.0,STARLINK-3890,PAYLOAD,2022-07-29 06:00:00,15.08839246,0.0001811999999999,53.2154,232.3003,64.3513,209.6875,-0.001661,-0.00026625,0.0,0 STARLINK-3890,1 52455U 22049E   22210.25001157 -.00026625  00000-0 -16610-2 0  9995,2 52455  53.2154 232.3003 0001812  64.3513 209.6875 15.08839246 13085,6917.8830000000025,95.438,541.001,538.494,0.0
52455.0,STARLINK-3890,PAYLOAD,2022-07-29 14:00:01,15.08824941,0.000185,53.2153,230.8044,59.2711,226.3488,0.00059934,9.259e-05,0.0,0 STARLINK-3890,1 52455U 22049E   22210.58334491  .00009259  00000-0  59934-3 0  9990,2 52455  53.2153 230.8044 0001850  59.2711 226.3488 15.08824941  1301,6917.926,95.439,541.071,538.512,0.0
52455.0,STARLINK-3890,PAYLOAD,2022-07-29 22:00:00,15.08806277,0.000176,53.2157,229.3063,66.2254,230.9851,0.002738,0.00043517,0.0,0 STARLINK-3890,1 52455U 22049E   22210.91667824  .00043517  00000-0  27380-2 0  9990,2 52455  53.2157 229.3063 0001760  66.2254 230.9851 15.08806277 13185,6917.983,95.44,541.066,538.631,0.0
52455.0,STARLINK-3890,PAYLOAD,2022-07-30 14:00:01,15.08835139,0.0001895,53.2158,226.315,59.2449,261.1235,-9.4924e-05,-1.798e-05,0.0,0 STARLINK-3890,1 52455U 22049E   22211.58334491 -.00001798  00000-0 -94924-4 0  9992,2 52455  53.2158 226.3150 0001895  59.2449 261.1235 15.08835139 13289,6917.895,95.438,541.071,538.4490000000002,0.0
52455.0,STARLINK-3890,PAYLOAD,2022-07-30 22:00:00,15.08810387,0.0001794,53.2161,224.817,66.9338,265.0331,0.0028765,0.00045752,0.0,0 STARLINK-3890,1 52455U 22049E   22211.91667824  .00045752  00000-0  28765-2 0  9992,2 52455  53.2161 224.8170 0001794  66.9338 265.0331 15.08810387  1306,6917.971,95.439,541.077,538.595,0.0
52455.0,STARLINK-3890,PAYLOAD,2022-07-31 14:00:01,15.08842997,0.0001909,53.2161,221.8256,59.8484,295.2859,-0.00068778,-0.00011219,0.0,0 STARLINK-3890,1 52455U 22049E   22212.58334491 -.00011219  00000-0 -68778-3 0  9999,2 52455  53.2161 221.8256 0001909  59.8484 295.2859 15.08842997  1301,6917.871,95.437,541.057,538.4159999999998,0.0
52455.0,STARLINK-3890,PAYLOAD,2022-07-31 22:00:00,15.0881426,0.0001794,53.2164,220.3277,68.0192,298.7189,0.0028956,0.00046065,0.0,0 STARLINK-3890,1 52455U 22049E   22212.91667824  .00046065  00000-0  28956-2 0  9993,2 52455  53.2164 220.3277 0001794  68.0192 298.7189 15.08814260 13489,6917.959,95.439,541.065,538.5830000000002,0.0
52455.0,STARLINK-3890,PAYLOAD,2022-08-01 14:00:01,15.08849256,0.0001908,53.2162,217.3363,61.2154,328.6989,-0.0010654,-0.00017209,0.0,0 STARLINK-3890,1 52455U 22049E   22213.58334491 -.00017209  00000-0 -10654-2 0  9994,2 52455  53.2162 217.3363 0001908  61.2154 328.6989 15.08849256 13584,6917.852,95.437,541.0369999999998,538.3969999999998,0.0
